{
"type": "FeatureCollection",
"name": "Wsub_manchester_city_centre",
"crs": { "type": "name", "properties": { "name": "urn:ogc:def:crs:OGC:1.3:CRS84" } },
"features": [
{ "type": "Feature", "properties": { "name": "Manchester city-centre subnetwork" }, "geometry": { "type": "Polygon", "coordinates": [ [ [ -2.262141413303066, 53.469610148877308 ], [ -2.217475968398238, 53.469699877955534 ], [ -2.217577599805562, 53.489546201719875 ], [ -2.262263892135358, 53.489456408036041 ], [ -2.262141413303066, 53.469610148877308 ] ] ] } }
]
}
